H-2A R/B                
1 38341U 12025E   25057.08865037  .00007127  00000+0  69530-3 0  9997
2 38341  98.4295 351.2332 0049261 102.2370 258.4370 14.91861393692083
SHIJIAN-16 (SJ-16)      
1 39358U 13057A   25057.21994794  .00005675  00000+0  57758-3 0  9995
2 39358  74.9740 176.9692 0017819 305.1243  54.8274 14.90801728615445
SL-4 R/B                
1 39679U 14021B   25056.25694738  .00018878  00000+0  55509-3 0  9992
2 39679  51.6114   2.9264 0120674 177.8094 182.3439 15.28164765598358
ALOS-2                  
1 39766U 14029A   25057.20682597  .00005547  00000+0  74913-3 0  9992
2 39766  97.9205 156.2110 0001604 101.6460 258.4932 14.79468098581238
YAOGAN-29               
1 41038U 15069A   25057.16641687  .00001323  00000+0  17184-3 0  9997
2 41038  98.0443  79.0202 0002736 112.7146 247.4356 14.82428907500085
ASTRO-H (HITOMI)        
1 41337U 16012A   25056.88603408  .00006616  00000+0  42467-3 0  9997
2 41337  30.9994 262.7411 0009814 149.1767 210.9447 15.07021564495280
HXMT (HUIYAN)           
1 42758U 17034A   25056.41888209  .00020170  00000+0  87118-3 0  9996
2 42758  43.0133 305.6867 0012656 286.8373  73.1088 15.22073155425328
CZ-2C R/B               
1 43521U 18054D   25057.00705835  .00042692  00000+0  88118-3 0  9991
2 43521  35.1413 292.6344 0043273 296.5707  63.0586 15.43780750369904
SAOCOM 1A               
1 43641U 18076A   25057.11912214  .00001390  00000+0  18118-3 0  9994
2 43641  97.8883 245.6878 0001395  86.9112 273.2261 14.82150322345584
H-2A R/B                
1 43682U 18084L   25056.94747776  .00027406  00000+0  10541-2 0  9994
2 43682  98.8590 194.1281 0036023 236.7149 123.0632 15.25770536348043
SAOCOM 1B               
1 46265U 20059A   25057.15039815  .00001460  00000+0  18990-3 0  9990
2 46265  97.8890 244.8234 0001372  87.1416 272.9955 14.82149642242988
CSS (TIANHE)            
1 48274U 21035A   25057.13758978  .00047896  00000+0  56491-3 0  9994
2 48274  41.4670 336.8661 0006999 247.4993 112.5105 15.60500319218795
COSMOS 2550             
1 48865U 21056A   25057.20444035 -.00000157  00000+0  10575-5 0  9992
2 48865  67.1411  99.8568 0008380 271.2446  88.7749 15.33826814205734
CZ-2C R/B               
1 52794U 22058K   25057.11707028  .00026750  00000+0  74096-3 0  9997
2 52794  50.1943  64.3423 0064775  78.2813 282.5408 15.34627475151966
XRISM                   
1 57800U 23137A   25056.67124541  .00013332  00000+0  87649-3 0  9992
2 57800  31.0016 192.8232 0008129 210.5118 149.5047 15.06383604 80798
ACS3                    
1 59588U 24077B   25056.94576842  .00009767  00000+0  10020-1 0  9990
2 59588  97.4938  74.8058 0051333 164.2383 196.0384 13.75801974 42182
NOAA 15                 
1 25338U 98030A   25057.10411202  .00000478  00000+0  21447-3 0  9990
2 25338  98.5471  84.6723 0009273 305.4651  54.5664 14.26893943393646
DMSP 5D-3 F16 (USA 172) 
1 28054U 03048A   25057.15499144  .00000430  00000+0  24883-3 0  9994
2 28054  99.0196  72.0263 0008135  60.0027  20.0515 14.14290780102177
NOAA 18                 
1 28654U 05018A   25057.13862516  .00000483  00000+0  27959-3 0  9999
2 28654  98.8492 137.7611 0014973  65.8123 294.4613 14.13526277 19133
METEOSAT-9 (MSG-2)      
1 28912U 05049B   25056.67926529  .00000129  00000+0  00000+0 0  9994
2 28912   8.2703  58.6559 0000864 355.8560  31.4393  1.00272911  2235
EWS-G1 (GOES 13)        
1 29155U 06018A   25057.00202610  .00000066  00000+0  00000+0 0  9997
2 29155   3.2886  82.2481 0065908 261.3389 233.9463  0.98828219 68670
DMSP 5D-3 F17 (USA 191) 
1 29522U 06050A   25057.17756708  .00000490  00000+0  27647-3 0  9992
2 29522  98.7429  68.5136 0009584 341.6260  18.4566 14.14762643945105
FENGYUN 3A              
1 32958U 08026A   25057.11520453  .00000406  00000+0  21342-3 0  9997
2 32958  98.6368   3.3407 0009768  63.1896 297.0278 14.19375829867970
NOAA 19                 
1 33591U 09005A   25057.12815629  .00000418  00000+0  24684-3 0  9997
2 33591  99.0110 121.2007 0012836 297.2905  62.6960 14.13294835827499
GOES 14                 
1 35491U 09033A   25056.67265578 -.00000069  00000+0  00000+0 0  9995
2 35491   0.4436  89.8922 0001081 168.6744  31.4413  1.00268282  1810
DMSP 5D-3 F18 (USA 210) 
1 35951U 09057A   25057.23606429  .00000679  00000+0  37663-3 0  9994
2 35951  98.8490  35.6674 0011366 158.5430 201.6222 14.14519655792270
EWS-G2 (GOES 15)        
1 36411U 10008A   25057.00292682  .00000039  00000+0  00000+0 0  9992
2 36411   0.0472  98.3580 0003799 183.3462 296.8035  1.00269690 54856
COMS 1                  
1 36744U 10032A   25056.28307314 -.00000343  00000+0  00000+0 0  9995
2 36744   3.5805  81.5991 0000856 258.7714  45.0840  1.00270775 46306
FENGYUN 3B              
1 37214U 10059A   25057.20591823  .00000279  00000+0  16811-3 0  9998
2 37214  99.0282  94.5233 0023150  94.7868 345.0229 14.14684386740166
SUOMI NPP               
1 37849U 11061A   25057.14007551  .00000288  00000+0  15719-3 0  9995
2 37849  98.7486 357.6034 0000491 168.2115 191.9073 14.19562746690898
METEOSAT-10 (MSG-3)     
1 38552U 12035B   25056.32903287 -.00000005  00000+0  00000+0 0  9990
2 38552   3.5435  62.0226 0001574 254.7161 317.1008  1.00271128 46075
METOP-B                 
1 38771U 12049A   25057.13618294  .00000369  00000+0  18830-3 0  9995
2 38771  98.5928 114.1942 0000446  64.2215 295.9009 14.21440052645625
INSAT-3D                
1 39216U 13038B   25056.57753192 -.00000338  00000+0  00000+0 0  9996
2 39216   0.6898  89.2562 0001832 221.9518 181.8937  1.00270469 42303
FENGYUN 3C              
1 39260U 13052A   25057.24144753  .00000404  00000+0  22730-3 0  9994
2 39260  98.4479  49.5409 0013892 317.7555  42.2549 14.15568359591299
METEOR-M 2              
1 40069U 14037A   25057.13296033  .00000443  00000+0  22249-3 0  9992
2 40069  98.4602  46.3321 0005520 352.5810   7.5285 14.21227227551698
HIMAWARI-8              
1 40267U 14060A   25056.69142032 -.00000275  00000+0  00000+0 0  9998
2 40267   0.0185 131.9024 0000595 235.4795 178.0038  1.00269600 37976
FENGYUN 2G              
1 40367U 14090A   25056.06305641 -.00000299  00000+0  00000+0 0  9996
2 40367   4.4234  78.6069 0000896 111.7170  87.0823  1.00267190 37213
METEOSAT-11 (MSG-4)     
1 40732U 15034A   25056.19905949  .00000067  00000+0  00000+0 0  9994
2 40732   2.0081  72.1384 0001245 241.0915 283.3164  1.00274657  2436
ELEKTRO-L 2             
1 41105U 15074A   25056.32616582 -.00000115  00000+0  00000+0 0  9995
2 41105   5.4852  76.3948 0003021 223.7690 318.1186  1.00272637 33720
INSAT-3DR               
1 41752U 16054A   25057.01391840 -.00000077  00000+0  00000+0 0  9993
2 41752   0.0061 122.7646 0012460 158.1992 314.1366  1.00271913 31028
HIMAWARI-9              
1 41836U 16064A   25056.69142032 -.00000275  00000+0  00000+0 0  9997
2 41836   0.0149 163.4860 0000911 212.8210 169.1426  1.00269464 30434
GOES 16                 
1 41866U 16071A   25056.08655937 -.00000245  00000+0  00000+0 0  9991
2 41866   0.0868 284.7229 0002348  14.4143 172.0119  1.00265268 30326
FENGYUN 4A              
1 41882U 16077A   25052.62774106 -.00000265  00000+0  00000+0 0  9993
2 41882   1.0928  85.3548 0004013 172.3984 251.3364  1.00665625 30165
CYGFM05                 
1 41884U 16078A   25056.46661888  .00022348  00000+0  60618-3 0  9994
2 41884  34.9617 126.6740 0008310 358.8452   1.2246 15.36659926455034
CYGFM04                 
1 41885U 16078B   25056.53916221  .00023700  00000+0  61636-3 0  9991
2 41885  34.9368 107.2121 0006835  19.5148 340.5831 15.37955577455221
CYGFM02                 
1 41886U 16078C   25057.18871129  .00023805  00000+0  59859-3 0  9991
2 41886  34.9454 104.1386 0008776  17.2341 342.8674 15.38969468455330
CYGFM01                 
1 41887U 16078D   25056.54290364  .00022741  00000+0  61028-3 0  9996
2 41887  34.9452 130.1849 0008046 343.3262  16.7190 15.36987510454994
CYGFM08                 
1 41888U 16078E   25057.23411591  .00024218  00000+0  63312-3 0  9990
2 41888  34.9479 111.3867 0009599  16.0908 344.0114 15.37770053455212
CYGFM07                 
1 41890U 16078G   25056.82304777  .00024054  00000+0  62039-3 0  9997
2 41890  34.9499 104.5718 0007325  30.6667 329.4478 15.38205931455124
CYGFM03                 
1 41891U 16078H   25056.81476453  .00023399  00000+0  60726-3 0  9990
2 41891  34.9451 106.0757 0006426  10.1223 349.9624 15.38025596455100
FENGYUN 3D              
1 43010U 17072A   25057.13554004  .00000342  00000+0  18396-3 0  9994
2 43010  98.9490  19.7807 0001488  13.7271 346.3945 14.19572171377440
NOAA 20 (JPSS-1)        
1 43013U 17073A   25057.15612610  .00000260  00000+0  14400-3 0  9999
2 43013  98.7327 357.1139 0000991 148.3572 211.7664 14.19561017376937
GOES 17                 
1 43226U 18022A   25056.64342999 -.00000092  00000+0  00000+0 0  9994
2 43226   0.0488 301.9215 0001525 141.6178 199.4219  1.00271375 25649
FENGYUN 2H              
1 43491U 18050A   25057.06989311 -.00000123  00000+0  00000+0 0  9996
2 43491   1.7998  84.7773 0000841 220.0302 315.3480  1.00266586 24739
METOP-C                 
1 43689U 18087A   25057.17352498  .00000364  00000+0  18645-3 0  9991
2 43689  98.6880 119.0219 0002460  92.7504 267.3955 14.21510883327207
GEO-KOMPSAT-2A          
1 43823U 18100A   25056.69697659 -.00000343  00000+0  00000+0 0  9994
2 43823   0.0193  65.7475 0001550 350.4728 118.7202  1.00269771 22883
METEOR-M2 2             
1 44387U 19038A   25057.22266758  .00000404  00000+0  19504-3 0  9993
2 44387  98.8635  33.9493 0000901  10.4196 349.7001 14.24148602293548
ARKTIKA-M 1             
1 47719U 21016A   25056.47156457  .00000083  00000+0  00000+0 0  9994
2 47719  63.1332 121.7695 7051729 268.4962  17.0938  2.00625398 29225
FENGYUN 3E              
1 49008U 21062A   25057.18777711  .00000147  00000+0  89969-4 0  9996
2 49008  98.7423  61.1728 0002243  48.7369 311.4000 14.19844401189035
